[
    {
        "CCSDS_OMM_VERS": "3.0",
        "COMMENT": "GENERATED VIA SPACE-TRACK.ORG API",
        "CREATION_DATE": "2025-05-03T17:28:03",
        "ORIGINATOR": "18 SPCS",
        "OBJECT_NAME": "COSMOS 2514 (GLONASS)",
        "OBJECT_ID": "2016-008A",
        "CENTER_NAME": "EARTH",
        "REF_FRAME": "TEME",
        "TIME_SYSTEM": "UTC",
        "MEAN_ELEMENT_THEORY": "SGP4",
        "EPOCH": "2025-05-03T03:38:17.954880",
        "MEAN_MOTION": "2.13102652",
        "ECCENTRICITY": "0.00090240",
        "INCLINATION": "65.2556",
        "RA_OF_ASC_NODE": "327.0475",
        "ARG_OF_PERICENTER": "201.1601",
        "MEAN_ANOMALY": "158.8295",
        "EPHEMERIS_TYPE": "0",
        "CLASSIFICATION_TYPE": "U",
        "NORAD_CAT_ID": "41330",
        "ELEMENT_SET_NO": "999",
        "REV_AT_EPOCH": "7188",
        "BSTAR": "0.00000000000000",
        "MEAN_MOTION_DOT": "-0.00000048",
        "MEAN_MOTION_DDOT": "0.0000000000000",
        "SEMIMAJOR_AXIS": "25507.972",
        "PERIOD": "675.731",
        "APOAPSIS": "19152.856",
        "PERIAPSIS": "19106.819",
        "OBJECT_TYPE": "PAYLOAD",
        "RCS_SIZE": "LARGE",
        "COUNTRY_CODE": "CIS",
        "LAUNCH_DATE": "2016-02-07",
        "SITE": "PKMTR",
        "DECAY_DATE": null,
        "FILE": "4717971",
        "GP_ID": "286761392",
        "TLE_LINE0": "0 COSMOS 2514 (GLONASS)",
        "TLE_LINE1": "1 41330U 16008A   25123.15159670 -.00000048  00000-0  00000-0 0  9996",
        "TLE_LINE2": "2 41330  65.2556 327.0475 0009024 201.1601 158.8295  2.13102652 71880"
    }
]